OBJECT_NAME,OBJECT_ID,EPOCH,MEAN_MOTION,ECCENTRICITY,INCLINATION,RA_OF_ASC_NODE,ARG_OF_PERICENTER,MEAN_ANOMALY,EPHEMERIS_TYPE,CLASSIFICATION_TYPE,NORAD_CAT_ID,ELEMENT_SET_NO,REV_AT_EPOCH,BSTAR,MEAN_MOTION_DOT,MEAN_MOTION_DDOT
STARLINK-37841,2026-157J,2026-07-22T21:03:12.928608,15.80941036,.00012541,53.1584,257.1720,72.4589,287.6571,0,U,69951,999,215,.14748333E-2,.301731E-2,0
STARLINK-37899,2026-157K,2026-07-22T14:56:14.437248,15.80899976,.00007832,53.1587,258.4253,86.9578,273.1534,0,U,69952,999,211,.67396027E-3,.134577E-2,0
STARLINK-37900,2026-157L,2026-07-22T20:59:25.395072,15.80988673,.000136,53.1585,257.1538,77.7250,282.3925,0,U,69953,999,215,.19529066E-2,.405559E-2,0
STARLINK-37882,2026-157M,2026-07-22T16:23:34.562688,15.80933278,.0001173,53.1590,258.0908,94.5376,265.5780,0,U,69954,999,212,.94126293E-3,.18974E-2,0
STARLINK-37928,2026-157N,2026-07-22T20:56:30.897312,15.80959040,.00015286,53.1587,257.1396,52.0020,308.1141,0,U,69955,999,215,.19949367E-2,.414152E-2,0
STARLINK-37824,2026-157P,2026-07-22T20:56:08.612160,15.80894841,.00007253,53.1584,257.1380,79.6987,280.4118,0,U,69956,999,215,.14438305E-2,.294503E-2,0
STARLINK-37919,2026-157Q,2026-07-22T14:51:45.817056,15.80833381,.00015133,53.1585,258.4040,70.7987,289.3199,0,U,69957,999,211,.71187884E-3,.141874E-2,0
STARLINK-37964,2026-157R,2026-07-22T20:54:16.259328,15.80930667,.00015338,53.1567,257.1293,85.6609,274.4589,0,U,69958,999,215,.12151442E-2,.246765E-2,0
STARLINK-37907,2026-157S,2026-07-22T17:49:38.953344,15.80897162,.00013201,53.1590,257.7504,55.2357,304.8790,0,U,69959,999,213,.10821135E-2,.218611E-2,0
STARLINK-37901,2026-157T,2026-07-22T20:50:02.643360,15.80956102,.00011963,53.1583,257.1097,71.9287,288.1866,0,U,69960,999,215,.13177766E-2,.268669E-2,0
STARLINK-37910,2026-157U,2026-07-22T20:47:45.775392,15.80939833,.00019743,53.1572,257.0996,61.7692,298.3530,0,U,69961,999,215,.14891657E-2,.304762E-2,0
STARLINK-37925,2026-157V,2026-07-22T14:43:06.362976,15.80855034,.0000972,53.1585,258.3633,70.5433,289.5695,0,U,69962,999,211,.13217731E-2,.268221E-2,0
STARLINK-37931,2026-157W,2026-07-22T14:42:17.079552,15.80856841,.00016792,53.1582,258.3597,51.5652,308.5521,0,U,69963,999,211,.13589763E-2,.276064E-2,0
STARLINK-37914,2026-157X,2026-07-22T20:42:14.563584,15.80950402,.00013488,53.1585,257.0724,95.9317,264.1860,0,U,69964,999,215,.15639257E-2,.320858E-2,0
STARLINK-37840,2026-157Y,2026-07-22T20:00:01.999872,15.80890350,.00011363,53.1587,257.1842,90.1030,119.9370,0,U,69965,999,338,.73297343E-4,.13802E-3,0
STARLINK-37894,2026-157Z,2026-07-22T19:08:39.848352,15.80943150,.00016065,53.1582,257.3766,66.1604,293.9587,0,U,69966,999,214,.10884104E-2,.220402E-2,0
STARLINK-37875,2026-157AA,2026-07-22T20:00:01.999872,15.80900561,.00009408,53.1586,257.1770,73.7986,139.6071,0,U,69967,999,338,-.20669934E-3,-.41351E-3,0
STARLINK-36218,2026-157AB,2026-07-22T20:00:01.999872,15.80913100,.00010355,53.1589,257.1495,89.8468,136.6011,0,U,69968,999,303,-.25591073E-3,-.51003E-3,0
STARLINK-37921,2026-157AC,2026-07-22T20:00:01.999872,15.80913761,.00010659,53.1590,257.1125,72.7834,171.6275,0,U,69969,999,338,-.27732879E-3,-.55188E-3,0
STARLINK-37896,2026-157AD,2026-07-22T20:00:01.999872,15.80890161,.0001045,53.1589,257.1102,89.0357,156.4766,0,U,69970,999,338,-.41567553E-4,-.8901E-4,0
STARLINK-37922,2026-157AE,2026-07-22T20:00:01.999872,15.80919708,.00009892,53.1591,257.1075,89.2153,157.6164,0,U,69971,999,338,-.35773788E-3,-.70879E-3,0
CHUANG XIN 26 (CX-26),2026-158A,2026-07-22T11:45:34.697088,14.25124408,.00049663,49.9826,249.6322,324.2847,35.7734,0,U,69972,999,174,-.690064E-5,-.176E-5,0
CZ-10B DEB,2026-158B,2026-07-22T11:48:31.933728,14.24894511,.00058504,49.9831,249.6440,335.2967,24.7665,0,U,69973,999,174,.20014761E-3,.311E-5,0
CZ-10B R/B,2026-158C,2026-07-22T07:08:25.271808,14.64302859,.01979911,49.9625,247.0336,227.5504,130.8538,0,U,69974,999,176,.58407713E-4,.168E-5,0
STARLINK-38024,2026-159A,2026-07-22T20:00:01.999872,15.80818106,.00010235,97.2858,42.9439,104.6856,112.1041,0,U,69975,999,308,.28863333E-4,.5391E-4,0
STARLINK-37993,2026-159B,2026-07-22T20:00:01.999872,15.80800788,.00012608,97.2859,42.9456,92.7414,128.3255,0,U,69976,999,308,.19995441E-3,.383E-3,0
STARLINK-37995,2026-159C,2026-07-22T20:00:01.999872,15.77051048,.00013452,97.2856,42.9456,93.1019,127.1046,0,U,69977,999,308,-.15194678E-1,-.215533E-1,0
STARLINK-38057,2026-159D,2026-07-22T20:00:01.999872,15.80794889,.00012018,97.2857,42.9491,99.5397,130.0728,0,U,69978,999,308,.2886912E-3,.55454E-3,0
STARLINK-38063,2026-159E,2026-07-22T20:00:01.999872,15.80784598,.00012872,97.2858,42.9514,100.0048,133.8909,0,U,69979,999,308,.34805375E-3,.66944E-3,0
STARLINK-38093,2026-159F,2026-07-22T20:00:01.999872,15.80807315,.00010275,97.2856,42.9523,99.9131,138.2484,0,U,69980,999,308,.14416398E-3,.27548E-3,0
