STARLINK-37841          
1 69951U 26157J   26203.87723297  .00301731  00000+0  14748-2 0  9999
2 69951  53.1584 257.1720 0001254  72.4589 287.6571 15.80941036  2150
STARLINK-37899          
1 69952U 26157K   26203.62238932  .00134577  00000+0  67396-3 0  9990
2 69952  53.1587 258.4253 0000783  86.9578 273.1534 15.80899976  2113
STARLINK-37900          
1 69953U 26157L   26203.87459948  .00405559  00000+0  19529-2 0  9995
2 69953  53.1585 257.1538 0001360  77.7250 282.3925 15.80988673  2154
STARLINK-37882          
1 69954U 26157M   26203.68303892  .00189740  00000+0  94126-3 0  9999
2 69954  53.1590 258.0908 0001173  94.5376 265.5780 15.80933278  2120
STARLINK-37928          
1 69955U 26157N   26203.87257983  .00414152  00000+0  19949-2 0  9997
2 69955  53.1587 257.1396 0001528  52.0020 308.1141 15.80959040  2150
STARLINK-37824          
1 69956U 26157P   26203.87232190  .00294503  00000+0  14438-2 0  9995
2 69956  53.1584 257.1380 0000725  79.6987 280.4118 15.80894841  2159
STARLINK-37919          
1 69957U 26157Q   26203.61928029  .00141874  00000+0  71188-3 0  9999
2 69957  53.1585 258.4040 0001513  70.7987 289.3199 15.80833381  2111
STARLINK-37964          
1 69958U 26157R   26203.87102152  .00246765  00000+0  12151-2 0  9998
2 69958  53.1567 257.1293 0001533  85.6609 274.4589 15.80930667  2153
STARLINK-37907          
1 69959U 26157S   26203.74281196  .00218611  00000+0  10821-2 0  9992
2 69959  53.1590 257.7504 0001320  55.2357 304.8790 15.80897162  2130
STARLINK-37901          
1 69960U 26157T   26203.86808615  .00268669  00000+0  13178-2 0  9994
2 69960  53.1583 257.1097 0001196  71.9287 288.1866 15.80956102  2153
STARLINK-37910          
1 69961U 26157U   26203.86650203  .00304762  00000+0  14892-2 0  9992
2 69961  53.1572 257.0996 0001974  61.7692 298.3530 15.80939833  2153
STARLINK-37925          
1 69962U 26157V   26203.61326809  .00268221  00000+0  13218-2 0  9998
2 69962  53.1585 258.3633 0000972  70.5433 289.5695 15.80855034  2118
STARLINK-37931          
1 69963U 26157W   26203.61269768  .00276064  00000+0  13590-2 0  9996
2 69963  53.1582 258.3597 0001679  51.5652 308.5521 15.80856841  2119
STARLINK-37914          
1 69964U 26157X   26203.86266856  .00320858  00000+0  15639-2 0  9996
2 69964  53.1585 257.0724 0001348  95.9317 264.1860 15.80950402  2159
STARLINK-37840          
1 69965U 26157Y   26203.83335648  .00013802  00000+0  73297-4 0  9994
2 69965  53.1587 257.1842 0001136  90.1030 119.9370 15.80890350  3382
STARLINK-37894          
1 69966U 26157Z   26203.79768343  .00220402  00000+0  10884-2 0  9999
2 69966  53.1582 257.3766 0001606  66.1604 293.9587 15.80943150  2140
STARLINK-37875          
1 69967U 26157AA  26203.83335648 -.00041351  00000+0 -20670-3 0  9994
2 69967  53.1586 257.1770 0000940  73.7986 139.6071 15.80900561  3385
STARLINK-36218          
1 69968U 26157AB  26203.83335648 -.00051003  00000+0 -25591-3 0  9997
2 69968  53.1589 257.1495 0001035  89.8468 136.6011 15.80913100  3038
STARLINK-37921          
1 69969U 26157AC  26203.83335648 -.00055188  00000+0 -27733-3 0  9996
2 69969  53.1590 257.1125 0001065  72.7834 171.6275 15.80913761  3384
STARLINK-37896          
1 69970U 26157AD  26203.83335648 -.00008901  00000+0 -41568-4 0  9992
2 69970  53.1589 257.1102 0001045  89.0357 156.4766 15.80890161  3382
STARLINK-37922          
1 69971U 26157AE  26203.83335648 -.00070879  00000+0 -35774-3 0  9997
2 69971  53.1591 257.1075 0000989  89.2153 157.6164 15.80919708  3381
CHUANG XIN 26 (CX-26)   
1 69972U 26158A   26203.48998492 -.00000176  00000+0 -69006-5 0  9992
2 69972  49.9826 249.6322 0004966 324.2847  35.7734 14.25124408  1748
CZ-10B DEB              
1 69973U 26158B   26203.49203627  .00000311  00000+0  20015-3 0  9997
2 69973  49.9831 249.6440 0005850 335.2967  24.7665 14.24894511  1743
CZ-10B R/B              
1 69974U 26158C   26203.29751472  .00000168  00000+0  58408-4 0  9990
2 69974  49.9625 247.0336 0197991 227.5504 130.8538 14.64302859  1762
STARLINK-38024          
1 69975U 26159A   26203.83335648  .00005391  00000+0  28863-4 0  9990
2 69975  97.2858  42.9439 0001023 104.6856 112.1041 15.80818106  3083
STARLINK-37993          
1 69976U 26159B   26203.83335648  .00038300  00000+0  19995-3 0  9992
2 69976  97.2859  42.9456 0001260  92.7414 128.3255 15.80800788  3087
STARLINK-37995          
1 69977U 26159C   26203.83335648 -.02155330  00000+0 -15195-1 0  9996
2 69977  97.2856  42.9456 0001345  93.1019 127.1046 15.77051048  3083
STARLINK-38057          
1 69978U 26159D   26203.83335648  .00055454  00000+0  28869-3 0  9993
2 69978  97.2857  42.9491 0001201  99.5397 130.0728 15.80794889  3085
STARLINK-38063          
1 69979U 26159E   26203.83335648  .00066944  00000+0  34805-3 0  9997
2 69979  97.2858  42.9514 0001287 100.0048 133.8909 15.80784598  3086
STARLINK-38093          
1 69980U 26159F   26203.83335648  .00027548  00000+0  14416-3 0  9992
2 69980  97.2856  42.9523 0001027  99.9131 138.2484 15.80807315  3087
